OBJECT_NAME,OBJECT_ID,EPOCH,MEAN_MOTION,ECCENTRICITY,INCLINATION,RA_OF_ASC_NODE,ARG_OF_PERICENTER,MEAN_ANOMALY,EPHEMERIS_TYPE,CLASSIFICATION_TYPE,NORAD_CAT_ID,ELEMENT_SET_NO,REV_AT_EPOCH,BSTAR,MEAN_MOTION_DOT,MEAN_MOTION_DDOT
CUBEBUG-2 (LO-74),2013-066AA,2026-06-09T10:14:19.891104,14.93700352,.0059152,97.8902,109.3723,54.2261,306.4438,0,U,39440,999,67583,.31222E-3,.3357E-4,0
FUNCUBE-1 (AO-73),2013-066AE,2026-06-09T10:23:34.623168,15.09396559,.0034858,97.8268,131.7174,227.8994,131.9269,0,U,39444,999,67849,.30669E-3,.4901E-4,0
UWE-3,2013-066AG,2026-06-09T03:04:03.741312,14.96959057,.00487694,97.8686,116.1479,348.2293,11.7784,0,U,39446,999,67637,.30256314E-3,.3499E-4,0
UNISAT-6,2014-033C,2026-06-09T09:37:45.642144,14.88204190,.0046432,97.7869,313.2514,94.2161,266.4364,0,U,40012,999,64500,.26157E-3,.2405E-4,0
DUCHIFAT-1,2014-033M,2026-06-09T09:46:15.376224,15.63050538,.0004339,98.0469,218.4842,129.4692,230.6949,0,U,40021,999,65453,.99932E-3,.91547E-3,0
QB50P1,2014-033R,2026-06-09T12:06:43.799040,15.18143870,.0007224,98.0973,171.1125,246.0164,114.0312,0,U,40025,999,65186,.39023E-3,.7898E-4,0
LILACSAT-2,2015-049K,2026-06-09T11:12:59.433120,15.51188241,.0005263,97.4659,197.0165,282.5502,77.5161,0,U,40908,999,59455,.2726E-3,.15851E-3,0
FOX-1A (AO-85),2015-058D,2026-06-09T12:06:49.256064,14.90932457,.0130003,64.7758,302.8578,59.6042,301.7845,0,U,40967,999,11242,.229E-3,.2485E-4,0
CAS-2T & KS-1Q,2016-066G,2026-06-09T11:35:56.231808,14.44668740,.0342511,98.3822,236.3075,152.7905,209.1703,0,U,41847,999,50368,.23478E-3,.1622E-4,0
RADFXSAT (FOX-1B),2017-073E,2026-06-08T08:15:12.420000,15.12571253,.01508957,97.4721,26.7398,359.9259,0.1924,0,U,43017,999,46405,.33532705E-3,.7664E-4,0
DIWATA-2B,2018-084H,2026-06-09T12:00:59.649696,15.00415339,.0012076,98.1174,356.3756,195.4585,164.6270,0,U,43678,999,41506,.18274E-3,.2234E-4,0
ES'HAIL 2,2018-090A,2026-06-09T04:54:15.071040,1.00273583,.0001916,0.0163,288.9745,188.7115,239.2727,0,U,43700,999,2759,0,.161E-5,0
FOX-1CLIFF (AO-95),2018-099N,2026-06-09T01:56:46.237344,15.26538897,.00088264,97.4389,220.3580,27.1898,332.9801,0,U,43770,999,41198,.3449818E-3,.8954E-4,0
ITASAT,2018-099AE,2026-06-09T02:48:06.579648,15.18954369,.00129837,97.4032,211.7901,28.2656,331.9281,0,U,43786,999,41168,.25280358E-3,.5227E-4,0
JY1SAT (JO-97),2018-099AX,2026-06-09T03:14:32.466336,15.33397143,.00042091,97.4132,222.9432,303.3283,56.7556,0,U,43803,999,41239,.46530705E-3,.14955E-3,0
UWE-4,2018-111E,2026-06-08T17:39:01.184832,15.45597673,.00070848,97.5854,87.7396,15.0599,345.0859,0,U,43880,999,40947,.71405657E-3,.34399E-3,0
TIANYAN 01,2019-093C,2026-06-09T12:08:12.961248,14.86510168,.0014969,97.7529,232.9252,109.4132,250.8703,0,U,44881,999,35027,.15978E-3,.1363E-4,0
RS-44 & BREEZE-KM R/B,2019-096E,2026-06-09T11:59:39.543936,12.79748674,.0217823,82.5217,344.8144,162.0929,198.8004,0,U,44909,999,30136,.88333E-4,.34E-6,0
SALSAT,2020-068K,2026-06-09T11:48:56.784096,15.29688082,.0008742,97.8855,163.0891,339.5990,20.4898,0,U,46495,999,31418,.25454E-3,.7245E-4,0
XW-3 (CAS-9),2021-131B,2026-06-09T13:22:32.488608,14.41351112,.0005257,98.4971,252.9884,114.3535,245.8203,0,U,50466,999,23401,.1769E-3,.529E-5,0
GREENCUBE (IO-117),2022-080E,2026-06-01T11:09:37.753056,6.42583280,.00088692,70.1435,303.7143,293.3663,66.6064,0,U,53109,999,9105,0,-.3E-7,0
UMKA 1 (RS40S),2023-091G,2026-06-09T11:04:20.633088,15.20727626,.001387,97.5055,219.1887,141.8772,218.3447,0,U,57172,999,16283,.25143E-3,.5475E-4,0
CUBESX-HSE 3 (RS42S),2023-091N,2026-06-09T11:05:25.818432,15.31017541,.001215,97.5095,225.9526,118.4929,241.7536,0,U,57178,999,16324,.41083E-3,.12266E-3,0
MONITOR-3 (RS58S),2023-091Q,2026-06-09T11:16:17.628672,15.27684662,.0013037,97.5088,223.8599,124.5955,235.6515,0,U,57180,999,16311,.37031E-3,.9971E-4,0
MONITOR-4 (RS57S),2023-091S,2026-06-09T10:46:46.325856,15.27777428,.0013037,97.5082,223.8099,125.0080,235.2384,0,U,57182,999,16311,.34396E-3,.9281E-4,0
MONITOR-2 (RS39S),2023-091U,2026-06-09T11:21:03.190176,15.18837970,.0012419,97.5077,218.8060,134.8343,225.3902,0,U,57184,999,16278,.20607E-3,.4231E-4,0
SVYATOBOR 1 (RS60S),2023-091X,2026-06-09T12:30:31.235040,15.26483432,.0010874,97.5093,224.2964,117.3158,242.9188,0,U,57187,999,16314,.32703E-3,.8473E-4,0
VIZARD-METEO (RS38S),2023-091Z,2026-06-09T12:36:04.180896,15.35780088,.0008656,97.5095,229.8581,100.5439,259.6780,0,U,57189,999,16351,.44197E-3,.15332E-3,0
POLYTECH-UNIVERSE 3 (RS46S),2023-091AB,2026-06-09T10:26:50.065152,15.19038195,.0016385,97.5052,218.2732,151.7216,208.4911,0,U,57191,999,16277,.23446E-3,.4859E-4,0
UTMN 2 (RS27S),2023-091AP,2026-06-09T11:36:51.151104,15.31860628,.0009475,97.5090,227.5992,106.6863,253.5419,0,U,57203,999,16336,.39176E-3,.11994E-3,0
